<?xml version="1.0" encoding="UTF-8"?>
<kml xmlns="http://www.opengis.net/kml/2.2">
  <Document>
    <name>Improve I-70 KC</name>
    <description/>
    <Style id="icon-1898-A52714-normal">
      <IconStyle>
        <color>ff1427a5</color>
        <scale>1</scale>
        <Icon>
          <href>https://www.gstatic.com/mapspro/images/stock/503-wht-blank_maps.png</href>
        </Icon>
      </IconStyle>
      <LabelStyle>
        <scale>0</scale>
      </LabelStyle>
    </Style>
    <Style id="icon-1898-A52714-highlight">
      <IconStyle>
        <color>ff1427a5</color>
        <scale>1</scale>
        <Icon>
          <href>https://www.gstatic.com/mapspro/images/stock/503-wht-blank_maps.png</href>
        </Icon>
      </IconStyle>
      <LabelStyle>
        <scale>1</scale>
      </LabelStyle>
    </Style>
    <StyleMap id="icon-1898-A52714">
      <Pair>
        <key>normal</key>
        <styleUrl>#icon-1898-A52714-normal</styleUrl>
      </Pair>
      <Pair>
        <key>highlight</key>
        <styleUrl>#icon-1898-A52714-highlight</styleUrl>
      </Pair>
    </StyleMap>
    <Style id="line-0288D1-7975-normal">
      <LineStyle>
        <color>ffd18802</color>
        <width>7.975</width>
      </LineStyle>
    </Style>
    <Style id="line-0288D1-7975-highlight">
      <LineStyle>
        <color>ffd18802</color>
        <width>11.9625</width>
      </LineStyle>
    </Style>
    <StyleMap id="line-0288D1-7975">
      <Pair>
        <key>normal</key>
        <styleUrl>#line-0288D1-7975-normal</styleUrl>
      </Pair>
      <Pair>
        <key>highlight</key>
        <styleUrl>#line-0288D1-7975-highlight</styleUrl>
      </Pair>
    </StyleMap>
    <Style id="poly-9C27B0-1200-153-normal">
      <LineStyle>
        <color>ffb0279c</color>
        <width>1.2</width>
      </LineStyle>
      <PolyStyle>
        <color>99b0279c</color>
        <fill>1</fill>
        <outline>1</outline>
      </PolyStyle>
    </Style>
    <Style id="poly-9C27B0-1200-153-highlight">
      <LineStyle>
        <color>ffb0279c</color>
        <width>1.8</width>
      </LineStyle>
      <PolyStyle>
        <color>99b0279c</color>
        <fill>1</fill>
        <outline>1</outline>
      </PolyStyle>
    </Style>
    <StyleMap id="poly-9C27B0-1200-153">
      <Pair>
        <key>normal</key>
        <styleUrl>#poly-9C27B0-1200-153-normal</styleUrl>
      </Pair>
      <Pair>
        <key>highlight</key>
        <styleUrl>#poly-9C27B0-1200-153-highlight</styleUrl>
      </Pair>
    </StyleMap>
    <Style id="poly-9C27B0-1200-179-normal">
      <LineStyle>
        <color>ffb0279c</color>
        <width>1.2</width>
      </LineStyle>
      <PolyStyle>
        <color>b3b0279c</color>
        <fill>1</fill>
        <outline>1</outline>
      </PolyStyle>
    </Style>
    <Style id="poly-9C27B0-1200-179-highlight">
      <LineStyle>
        <color>ffb0279c</color>
        <width>1.8</width>
      </LineStyle>
      <PolyStyle>
        <color>b3b0279c</color>
        <fill>1</fill>
        <outline>1</outline>
      </PolyStyle>
    </Style>
    <StyleMap id="poly-9C27B0-1200-179">
      <Pair>
        <key>normal</key>
        <styleUrl>#poly-9C27B0-1200-179-normal</styleUrl>
      </Pair>
      <Pair>
        <key>highlight</key>
        <styleUrl>#poly-9C27B0-1200-179-highlight</styleUrl>
      </Pair>
    </StyleMap>
    <Style id="poly-A52714-1200-176-normal">
      <LineStyle>
        <color>ff1427a5</color>
        <width>1.2</width>
      </LineStyle>
      <PolyStyle>
        <color>b01427a5</color>
        <fill>1</fill>
        <outline>1</outline>
      </PolyStyle>
    </Style>
    <Style id="poly-A52714-1200-176-highlight">
      <LineStyle>
        <color>ff1427a5</color>
        <width>1.8</width>
      </LineStyle>
      <PolyStyle>
        <color>b01427a5</color>
        <fill>1</fill>
        <outline>1</outline>
      </PolyStyle>
    </Style>
    <StyleMap id="poly-A52714-1200-176">
      <Pair>
        <key>normal</key>
        <styleUrl>#poly-A52714-1200-176-normal</styleUrl>
      </Pair>
      <Pair>
        <key>highlight</key>
        <styleUrl>#poly-A52714-1200-176-highlight</styleUrl>
      </Pair>
    </StyleMap>
    <Style id="poly-A52714-1200-181-normal">
      <LineStyle>
        <color>ff1427a5</color>
        <width>1.2</width>
      </LineStyle>
      <PolyStyle>
        <color>b51427a5</color>
        <fill>1</fill>
        <outline>1</outline>
      </PolyStyle>
    </Style>
    <Style id="poly-A52714-1200-181-highlight">
      <LineStyle>
        <color>ff1427a5</color>
        <width>1.8</width>
      </LineStyle>
      <PolyStyle>
        <color>b51427a5</color>
        <fill>1</fill>
        <outline>1</outline>
      </PolyStyle>
    </Style>
    <StyleMap id="poly-A52714-1200-181">
      <Pair>
        <key>normal</key>
        <styleUrl>#poly-A52714-1200-181-normal</styleUrl>
      </Pair>
      <Pair>
        <key>highlight</key>
        <styleUrl>#poly-A52714-1200-181-highlight</styleUrl>
      </Pair>
    </StyleMap>
    <Style id="poly-A52714-1501-168-normal">
      <LineStyle>
        <color>ff1427a5</color>
        <width>1.501</width>
      </LineStyle>
      <PolyStyle>
        <color>a81427a5</color>
        <fill>1</fill>
        <outline>1</outline>
      </PolyStyle>
    </Style>
    <Style id="poly-A52714-1501-168-highlight">
      <LineStyle>
        <color>ff1427a5</color>
        <width>2.2515</width>
      </LineStyle>
      <PolyStyle>
        <color>a81427a5</color>
        <fill>1</fill>
        <outline>1</outline>
      </PolyStyle>
    </Style>
    <StyleMap id="poly-A52714-1501-168">
      <Pair>
        <key>normal</key>
        <styleUrl>#poly-A52714-1501-168-normal</styleUrl>
      </Pair>
      <Pair>
        <key>highlight</key>
        <styleUrl>#poly-A52714-1501-168-highlight</styleUrl>
      </Pair>
    </StyleMap>
    <Style id="poly-E65100-1200-145-normal">
      <LineStyle>
        <color>ff0051e6</color>
        <width>1.2</width>
      </LineStyle>
      <PolyStyle>
        <color>910051e6</color>
        <fill>1</fill>
        <outline>1</outline>
      </PolyStyle>
    </Style>
    <Style id="poly-E65100-1200-145-highlight">
      <LineStyle>
        <color>ff0051e6</color>
        <width>1.8</width>
      </LineStyle>
      <PolyStyle>
        <color>910051e6</color>
        <fill>1</fill>
        <outline>1</outline>
      </PolyStyle>
    </Style>
    <StyleMap id="poly-E65100-1200-145">
      <Pair>
        <key>normal</key>
        <styleUrl>#poly-E65100-1200-145-normal</styleUrl>
      </Pair>
      <Pair>
        <key>highlight</key>
        <styleUrl>#poly-E65100-1200-145-highlight</styleUrl>
      </Pair>
    </StyleMap>
    <Style id="poly-E65100-1200-158-normal">
      <LineStyle>
        <color>ff0051e6</color>
        <width>1.2</width>
      </LineStyle>
      <PolyStyle>
        <color>9e0051e6</color>
        <fill>1</fill>
        <outline>1</outline>
      </PolyStyle>
    </Style>
    <Style id="poly-E65100-1200-158-highlight">
      <LineStyle>
        <color>ff0051e6</color>
        <width>1.8</width>
      </LineStyle>
      <PolyStyle>
        <color>9e0051e6</color>
        <fill>1</fill>
        <outline>1</outline>
      </PolyStyle>
    </Style>
    <StyleMap id="poly-E65100-1200-158">
      <Pair>
        <key>normal</key>
        <styleUrl>#poly-E65100-1200-158-normal</styleUrl>
      </Pair>
      <Pair>
        <key>highlight</key>
        <styleUrl>#poly-E65100-1200-158-highlight</styleUrl>
      </Pair>
    </StyleMap>
    <Style id="poly-E65100-1200-161-normal">
      <LineStyle>
        <color>ff0051e6</color>
        <width>1.2</width>
      </LineStyle>
      <PolyStyle>
        <color>a10051e6</color>
        <fill>1</fill>
        <outline>1</outline>
      </PolyStyle>
    </Style>
    <Style id="poly-E65100-1200-161-highlight">
      <LineStyle>
        <color>ff0051e6</color>
        <width>1.8</width>
      </LineStyle>
      <PolyStyle>
        <color>a10051e6</color>
        <fill>1</fill>
        <outline>1</outline>
      </PolyStyle>
    </Style>
    <StyleMap id="poly-E65100-1200-161">
      <Pair>
        <key>normal</key>
        <styleUrl>#poly-E65100-1200-161-normal</styleUrl>
      </Pair>
      <Pair>
        <key>highlight</key>
        <styleUrl>#poly-E65100-1200-161-highlight</styleUrl>
      </Pair>
    </StyleMap>
    <Style id="poly-E65100-1200-161-nodesc-normal">
      <LineStyle>
        <color>ff0051e6</color>
        <width>1.2</width>
      </LineStyle>
      <PolyStyle>
        <color>a10051e6</color>
        <fill>1</fill>
        <outline>1</outline>
      </PolyStyle>
      <BalloonStyle>
        <text><![CDATA[<h3>$[name]</h3>]]></text>
      </BalloonStyle>
    </Style>
    <Style id="poly-E65100-1200-161-nodesc-highlight">
      <LineStyle>
        <color>ff0051e6</color>
        <width>1.8</width>
      </LineStyle>
      <PolyStyle>
        <color>a10051e6</color>
        <fill>1</fill>
        <outline>1</outline>
      </PolyStyle>
      <BalloonStyle>
        <text><![CDATA[<h3>$[name]</h3>]]></text>
      </BalloonStyle>
    </Style>
    <StyleMap id="poly-E65100-1200-161-nodesc">
      <Pair>
        <key>normal</key>
        <styleUrl>#poly-E65100-1200-161-nodesc-normal</styleUrl>
      </Pair>
      <Pair>
        <key>highlight</key>
        <styleUrl>#poly-E65100-1200-161-nodesc-highlight</styleUrl>
      </Pair>
    </StyleMap>
    <Style id="poly-FF5252-1200-163-normal">
      <LineStyle>
        <color>ff5252ff</color>
        <width>1.2</width>
      </LineStyle>
      <PolyStyle>
        <color>a35252ff</color>
        <fill>1</fill>
        <outline>1</outline>
      </PolyStyle>
    </Style>
    <Style id="poly-FF5252-1200-163-highlight">
      <LineStyle>
        <color>ff5252ff</color>
        <width>1.8</width>
      </LineStyle>
      <PolyStyle>
        <color>a35252ff</color>
        <fill>1</fill>
        <outline>1</outline>
      </PolyStyle>
    </Style>
    <StyleMap id="poly-FF5252-1200-163">
      <Pair>
        <key>normal</key>
        <styleUrl>#poly-FF5252-1200-163-normal</styleUrl>
      </Pair>
      <Pair>
        <key>highlight</key>
        <styleUrl>#poly-FF5252-1200-163-highlight</styleUrl>
      </Pair>
    </StyleMap>
    <Style id="poly-FF5252-1200-189-normal">
      <LineStyle>
        <color>ff5252ff</color>
        <width>1.2</width>
      </LineStyle>
      <PolyStyle>
        <color>bd5252ff</color>
        <fill>1</fill>
        <outline>1</outline>
      </PolyStyle>
    </Style>
    <Style id="poly-FF5252-1200-189-highlight">
      <LineStyle>
        <color>ff5252ff</color>
        <width>1.8</width>
      </LineStyle>
      <PolyStyle>
        <color>bd5252ff</color>
        <fill>1</fill>
        <outline>1</outline>
      </PolyStyle>
    </Style>
    <StyleMap id="poly-FF5252-1200-189">
      <Pair>
        <key>normal</key>
        <styleUrl>#poly-FF5252-1200-189-normal</styleUrl>
      </Pair>
      <Pair>
        <key>highlight</key>
        <styleUrl>#poly-FF5252-1200-189-highlight</styleUrl>
      </Pair>
    </StyleMap>
    <Style id="poly-FF5252-1200-191-normal">
      <LineStyle>
        <color>ff5252ff</color>
        <width>1.2</width>
      </LineStyle>
      <PolyStyle>
        <color>bf5252ff</color>
        <fill>1</fill>
        <outline>1</outline>
      </PolyStyle>
    </Style>
    <Style id="poly-FF5252-1200-191-highlight">
      <LineStyle>
        <color>ff5252ff</color>
        <width>1.8</width>
      </LineStyle>
      <PolyStyle>
        <color>bf5252ff</color>
        <fill>1</fill>
        <outline>1</outline>
      </PolyStyle>
    </Style>
    <StyleMap id="poly-FF5252-1200-191">
      <Pair>
        <key>normal</key>
        <styleUrl>#poly-FF5252-1200-191-normal</styleUrl>
      </Pair>
      <Pair>
        <key>highlight</key>
        <styleUrl>#poly-FF5252-1200-191-highlight</styleUrl>
      </Pair>
    </StyleMap>
    <Style id="poly-FFD600-1200-41-normal">
      <LineStyle>
        <color>ff00d6ff</color>
        <width>1.2</width>
      </LineStyle>
      <PolyStyle>
        <color>2900d6ff</color>
        <fill>1</fill>
        <outline>1</outline>
      </PolyStyle>
    </Style>
    <Style id="poly-FFD600-1200-41-highlight">
      <LineStyle>
        <color>ff00d6ff</color>
        <width>1.8</width>
      </LineStyle>
      <PolyStyle>
        <color>2900d6ff</color>
        <fill>1</fill>
        <outline>1</outline>
      </PolyStyle>
    </Style>
    <StyleMap id="poly-FFD600-1200-41">
      <Pair>
        <key>normal</key>
        <styleUrl>#poly-FFD600-1200-41-normal</styleUrl>
      </Pair>
      <Pair>
        <key>highlight</key>
        <styleUrl>#poly-FFD600-1200-41-highlight</styleUrl>
      </Pair>
    </StyleMap>
    <Folder>
      <name>Project Area</name>
      <Placemark>
        <name>Improve I-70 Project Area</name>
        <description>2025-2028</description>
        <styleUrl>#poly-FFD600-1200-41</styleUrl>
        <Polygon>
          <outerBoundaryIs>
            <LinearRing>
              <tessellate>1</tessellate>
              <coordinates>
                -94.567052,39.0989513,0
                -94.5672698,39.0937542,0
                -94.5528502,39.093255,0
                -94.5480866,39.0934878,0
                -94.5459409,39.0889912,0
                -94.5461336,39.0844725,0
                -94.5365635,39.0693474,0
                -94.5268217,39.0690475,0
                -94.5143091,39.065572,0
                -94.5055757,39.0614734,0
                -94.501177,39.0683875,0
                -94.5089876,39.0719359,0
                -94.5258533,39.0755675,0
                -94.5316039,39.0757674,0
                -94.5358096,39.0818306,0
                -94.5358096,39.0894921,0
                -94.5432549,39.0993179,0
                -94.5541345,39.0986849,0
                -94.567052,39.0989513,0
              </coordinates>
            </LinearRing>
          </outerBoundaryIs>
        </Polygon>
      </Placemark>
    </Folder>
    <Folder>
      <name>I-70 Improvements Overview</name>
      <Placemark>
        <name>Benton Curve - Reconstruction</name>
        <description>2025 - 2028</description>
        <styleUrl>#poly-9C27B0-1200-153</styleUrl>
        <Polygon>
          <outerBoundaryIs>
            <LinearRing>
              <tessellate>1</tessellate>
              <coordinates>
                -94.5481664,39.097371,0
                -94.5481798,39.0966258,0
                -94.5480323,39.0966175,0
                -94.5474315,39.0965509,0
                -94.5466805,39.096376,0
                -94.5461011,39.0961429,0
                -94.545554,39.0958681,0
                -94.5451087,39.0955808,0
                -94.54476,39.0952353,0
                -94.54476,39.0948856,0
                -94.5448459,39.0940362,0
                -94.5448888,39.0930953,0
                -94.5425821,39.093037,0
                -94.5424855,39.0945691,0
                -94.5424962,39.0948273,0
                -94.5426894,39.0952936,0
                -94.5429683,39.0957682,0
                -94.5433331,39.0963177,0
                -94.5437837,39.0967257,0
                -94.544245,39.0970338,0
                -94.5446849,39.097242,0
                -94.5481664,39.097371,0
              </coordinates>
            </LinearRing>
          </outerBoundaryIs>
        </Polygon>
      </Placemark>
      <Placemark>
        <name>Reconstruct Jackson Curve</name>
        <description>2025-2028</description>
        <styleUrl>#poly-9C27B0-1200-179</styleUrl>
        <Polygon>
          <outerBoundaryIs>
            <LinearRing>
              <tessellate>1</tessellate>
              <coordinates>
                -94.5374462,39.0765079,0
                -94.537017,39.0757666,0
                -94.5367166,39.0750503,0
                -94.536427,39.0745673,0
                -94.5363626,39.0740259,0
                -94.536384,39.0735928,0
                -94.5364055,39.0731346,0
                -94.5364377,39.0726099,0
                -94.5352575,39.07251,0
                -94.5341632,39.0724516,0
                -94.5330474,39.0725016,0
                -94.5318136,39.072485,0
                -94.5308587,39.0724933,0
                -94.5309016,39.0731097,0
                -94.5316955,39.073118,0
                -94.5323822,39.0731263,0
                -94.533219,39.0732513,0
                -94.5339164,39.0735678,0
                -94.5344207,39.0738926,0
                -94.5348391,39.0743257,0
                -94.5352361,39.0748838,0
                -94.5355257,39.0753335,0
                -94.5359763,39.0759499,0
                -94.5363913,39.0764965,0
                -94.5374462,39.0765079,0
              </coordinates>
            </LinearRing>
          </outerBoundaryIs>
        </Polygon>
      </Placemark>
      <Placemark>
        <name>Interstate 70</name>
        <description><![CDATA[4th EB thru lane, additional EB auxiliary lanes, replace mainline bridges. FULL CLOSURE between Prospect Ave. & Van Brunt Blvd.: FEB-NOV 2027]]></description>
        <styleUrl>#line-0288D1-7975</styleUrl>
        <LineString>
          <tessellate>1</tessellate>
          <coordinates>
            -94.5514481,39.0964243,0
            -94.550508,39.0967241,0
            -94.5495679,39.0969489,0
            -94.5483663,39.0970322,0
            -94.54636,39.0967241,0
            -94.5444825,39.095958,0
            -94.5436886,39.0951337,0
            -94.5434096,39.0942178,0
            -94.5433667,39.0933268,0
            -94.5433452,39.0924358,0
            -94.542562,39.0908953,0
            -94.54187,39.0896004,0
            -94.5413926,39.0883055,0
            -94.5411965,39.0871148,0
            -94.541172,39.085924,0
            -94.5412364,39.0832091,0
            -94.5406463,39.0818682,0
            -94.5396271,39.0804191,0
            -94.5391013,39.0796279,0
            -94.5375028,39.0774458,0
            -94.5359255,39.0748805,0
            -94.5355447,39.0740143,0
            -94.5348822,39.0734313,0
            -94.5338227,39.0729815,0
            -94.5316072,39.0728066,0
            -94.5294131,39.0727649,0
            -94.5276965,39.0726899,0
            -94.5265593,39.0724984,0
            -94.5230832,39.0717987,0
            -94.5219888,39.0715655,0
            -94.5210018,39.0713489,0
            -94.517171,39.0705618,0
            -94.5134153,39.0697246,0
            -94.5110647,39.0687665,0
            -94.5079729,39.0673998,0
          </coordinates>
        </LineString>
      </Placemark>
    </Folder>
    <Folder>
      <name>Phase 1 Construction (2025)</name>
      <Placemark>
        <name>23rd St. over I-70 - Bridge Replacement</name>
        <description>2025</description>
        <styleUrl>#poly-A52714-1501-168</styleUrl>
        <Polygon>
          <outerBoundaryIs>
            <LinearRing>
              <tessellate>1</tessellate>
              <coordinates>
                -94.5419388,39.0841428,0
                -94.5419389,39.0838701,0
                -94.5406004,39.0838316,0
                -94.5405924,39.0841075,0
                -94.5419388,39.0841428,0
              </coordinates>
            </LinearRing>
          </outerBoundaryIs>
        </Polygon>
      </Placemark>
      <Placemark>
        <name>New Pedestrian Bridge at 25th St. over I-70</name>
        <description>2025</description>
        <styleUrl>#poly-FF5252-1200-191</styleUrl>
        <Polygon>
          <outerBoundaryIs>
            <LinearRing>
              <tessellate>1</tessellate>
              <coordinates>
                -94.5403156,39.0805562,0
                -94.5401494,39.0803105,0
                -94.539224,39.0807269,0
                -94.5393849,39.080958,0
                -94.5403156,39.0805562,0
              </coordinates>
            </LinearRing>
          </outerBoundaryIs>
        </Polygon>
      </Placemark>
    </Folder>
    <Folder>
      <name>Phase 2 Construction (2026)</name>
      <Placemark>
        <name>Cleveland Ave. over I-70 - Bridge Replacement</name>
        <description>2026</description>
        <styleUrl>#poly-A52714-1200-181</styleUrl>
        <Polygon>
          <outerBoundaryIs>
            <LinearRing>
              <tessellate>1</tessellate>
              <coordinates>
                -94.5388918,39.0785071,0
                -94.5387094,39.0784905,0
                -94.5383875,39.0779991,0
                -94.5382909,39.0794024,0
                -94.5387845,39.080152,0
                -94.5388918,39.0785071,0
              </coordinates>
            </LinearRing>
          </outerBoundaryIs>
        </Polygon>
      </Placemark>
      <Placemark>
        <name>27th St. over I-70 - Bridge Replacement</name>
        <description>2027</description>
        <styleUrl>#poly-A52714-1200-176</styleUrl>
        <Polygon>
          <outerBoundaryIs>
            <LinearRing>
              <tessellate>1</tessellate>
              <coordinates>
                -94.5375583,39.076864,0
                -94.5373893,39.0763601,0
                -94.5362467,39.0763184,0
                -94.5364317,39.0768203,0
                -94.5375583,39.076864,0
              </coordinates>
            </LinearRing>
          </outerBoundaryIs>
        </Polygon>
      </Placemark>
      <Placemark>
        <name>Lister Ave. over I-70 - Bridge Replacement</name>
        <description>2026</description>
        <styleUrl>#poly-A52714-1200-176</styleUrl>
        <Polygon>
          <outerBoundaryIs>
            <LinearRing>
              <tessellate>1</tessellate>
              <coordinates>
                -94.5287199,39.0732559,0
                -94.5287762,39.072271,0
                -94.5282531,39.0722501,0
                -94.5282183,39.0732413,0
                -94.5287199,39.0732559,0
              </coordinates>
            </LinearRing>
          </outerBoundaryIs>
        </Polygon>
      </Placemark>
      <Placemark>
        <name>Oakley Ave. Pedestrian Bridge over I-70 - Replacement</name>
        <description>2026</description>
        <styleUrl>#poly-FF5252-1200-163</styleUrl>
        <Polygon>
          <outerBoundaryIs>
            <LinearRing>
              <tessellate>1</tessellate>
              <coordinates>
                -94.5184071,39.0712334,0
                -94.5184392,39.0702589,0
                -94.5181388,39.0702526,0
                -94.518104,39.0712314,0
                -94.5184071,39.0712334,0
              </coordinates>
            </LinearRing>
          </outerBoundaryIs>
        </Polygon>
      </Placemark>
    </Folder>
    <Folder>
      <name>Phase 3 Construction (2027)</name>
      <Placemark>
        <name>Eastern Limit of I-70 Closure</name>
        <description>Feb. 2027 - Nov. 2027</description>
        <styleUrl>#icon-1898-A52714</styleUrl>
        <Point>
          <coordinates>
            -94.5206343,39.0712829,0
          </coordinates>
        </Point>
      </Placemark>
      <Placemark>
        <name>I-70 over The Paseo - Bridge Rehabilitation</name>
        <description>2027</description>
        <styleUrl>#poly-E65100-1200-145</styleUrl>
        <Polygon>
          <outerBoundaryIs>
            <LinearRing>
              <tessellate>1</tessellate>
              <coordinates>
                -94.5648982,39.0964079,0
                -94.564917,39.095848,0
                -94.5635571,39.0958188,0
                -94.563541,39.096385,0
                -94.5648982,39.0964079,0
              </coordinates>
            </LinearRing>
          </outerBoundaryIs>
        </Polygon>
      </Placemark>
      <Placemark>
        <name>I-70 over Woodland Ave. - Bridge Rehabilitation</name>
        <description>2027</description>
        <styleUrl>#poly-E65100-1200-161</styleUrl>
        <Polygon>
          <outerBoundaryIs>
            <LinearRing>
              <tessellate>1</tessellate>
              <coordinates>
                -94.561192,39.0963239,0
                -94.5612014,39.0957608,0
                -94.560437,39.0957421,0
                -94.5604142,39.0963031,0
                -94.561192,39.0963239,0
              </coordinates>
            </LinearRing>
          </outerBoundaryIs>
        </Polygon>
      </Placemark>
      <Placemark>
        <name>I-70 over Brooklyn Ave. - Bridge Rehabilitation</name>
        <description>2027</description>
        <styleUrl>#poly-E65100-1200-158</styleUrl>
        <Polygon>
          <outerBoundaryIs>
            <LinearRing>
              <tessellate>1</tessellate>
              <coordinates>
                -94.5566933,39.0962105,0
                -94.5567202,39.0955818,0
                -94.5557197,39.0955527,0
                -94.555717,39.0961918,0
                -94.5566933,39.0962105,0
              </coordinates>
            </LinearRing>
          </outerBoundaryIs>
        </Polygon>
      </Placemark>
      <Placemark>
        <name>Chestnut Ave. over I-70 - Bridge Rehabilitation</name>
        <styleUrl>#poly-E65100-1200-161-nodesc</styleUrl>
        <Polygon>
          <outerBoundaryIs>
            <LinearRing>
              <tessellate>1</tessellate>
              <coordinates>
                -94.5496018,39.097408,0
                -94.5496232,39.0965254,0
                -94.5490868,39.0965046,0
                -94.5490868,39.097383,0
                -94.5496018,39.097408,0
              </coordinates>
            </LinearRing>
          </outerBoundaryIs>
        </Polygon>
      </Placemark>
      <Placemark>
        <name>Cypress Ave. Pedestrian Bridge over I-70 - Removal</name>
        <description>2027</description>
        <styleUrl>#poly-FF5252-1200-189</styleUrl>
        <Polygon>
          <outerBoundaryIs>
            <LinearRing>
              <tessellate>1</tessellate>
              <coordinates>
                -94.5307309,39.0732236,0
                -94.5308624,39.0732653,0
                -94.5309016,39.0731097,0
                -94.5308356,39.0722928,0
                -94.5307739,39.0720076,0
                -94.5305244,39.0720492,0
                -94.5306237,39.0724261,0
                -94.5307309,39.0732236,0
              </coordinates>
            </LinearRing>
          </outerBoundaryIs>
        </Polygon>
      </Placemark>
      <Placemark>
        <name>Western Limit of I-70 Closure</name>
        <description>Feb. 2027 - Nov. 2027</description>
        <styleUrl>#icon-1898-A52714</styleUrl>
        <Point>
          <coordinates>
            -94.5515618,39.0963648,0
          </coordinates>
        </Point>
      </Placemark>
      <Placemark>
        <name>I-70 over US-40 - Bridge Rehabilitations</name>
        <description>2027</description>
        <styleUrl>#poly-E65100-1200-158</styleUrl>
        <Polygon>
          <outerBoundaryIs>
            <LinearRing>
              <tessellate>1</tessellate>
              <coordinates>
                -94.5120192,39.0689252,0
                -94.5120594,39.0688773,0
                -94.5106352,39.0682131,0
                -94.5102382,39.0687503,0
                -94.5116947,39.0693521,0
                -94.5120192,39.0689252,0
              </coordinates>
            </LinearRing>
          </outerBoundaryIs>
        </Polygon>
      </Placemark>
    </Folder>
  </Document>
</kml>
